{"type": "FeatureCollection", "features": [ {"type": "Feature", "properties": {"norad_id": 34058, "name": "COSMOS 2251 DEB", "group": "cosmos-2251-debris", "lat": 71.15985422721747, "lon": -117.63010132363262, "alt_km": 1084.5725990807277, "timestamp": "2025-12-08T15:42:50.189649+00:00", "meta": {"OBJECT_NAME": "COSMOS 2251 DEB", "OBJECT_ID": "1993-036JV", "EPOCH": "2025-12-07T23:57:27.539424", "MEAN_MOTION": 13.56065366, "ECCENTRICITY": 0.03781579, "INCLINATION": 73.9318, "RA_OF_ASC_NODE": 185.798, "ARG_OF_PERICENTER": 181.9388, "MEAN_ANOMALY": 298.6068, "EPHEMERIS_TYPE": 0, "CLASSIFICATION_TYPE": "U", "NORAD_CAT_ID": 34058, "ELEMENT_SET_NO": 999, "REV_AT_EPOCH": 83078, "BSTAR": 0.00084254085, "MEAN_MOTION_DOT": 9.14e-06, "MEAN_MOTION_DDOT": 0}, "tle": {"line1": "1 34058U 93036JV  25341.99823541  .00000914  00000+0  84254-3 0  9996", "line2": "2 34058  73.9318 185.7980 0378157 181.9388 298.6068 13.56065366830786"}}, "geometry": {"type": "Point", "coordinates": [-117.63010132363262, 71.15985422721747]}}, {"type": "Feature", "properties": {"norad_id": 34059, "name": "COSMOS 2251 DEB", "group": "cosmos-2251-debris", "lat": -36.26937068240931, "lon": -178.14044782581385, "alt_km": 713.6717478771216, "timestamp": "2025-12-08T15:42:50.189660+00:00", "meta": {"OBJECT_NAME": "COSMOS 2251 DEB", "OBJECT_ID": "1993-036JW", "EPOCH": "2025-12-08T01:43:55.208064", "MEAN_MOTION": 14.52905777, "ECCENTRICITY": 0.00187292, "INCLINATION": 74.0376, "RA_OF_ASC_NODE": 195.0814, "ARG_OF_PERICENTER": 272.8273, "MEAN_ANOMALY": 243.2019, "EPHEMERIS_TYPE": 0, "CLASSIFICATION_TYPE": "U", "NORAD_CAT_ID": 34059, "ELEMENT_SET_NO": 999, "REV_AT_EPOCH": 88391, "BSTAR": 0.00097736005, "MEAN_MOTION_DOT": 4.008e-05, "MEAN_MOTION_DDOT": 0}, "tle": {"line1": "1 34059U 93036JW  25342.07216676  .00004008  00000+0  97736-3 0  9999", "line2": "2 34059  74.0376 195.0814 0018729 272.8273 243.2019 14.52905777883913"}}, "geometry": {"type": "Point", "coordinates": [-178.14044782581385, -36.26937068240931]}}, {"type": "Feature", "properties": {"norad_id": 34061, "name": "COSMOS 2251 DEB", "group": "cosmos-2251-debris", "lat": 43.81188862688012, "lon": 75.00427960544637, "alt_km": 765.2669993508189, "timestamp": "2025-12-08T15:42:50.189670+00:00", "meta": {"OBJECT_NAME": "COSMOS 2251 DEB", "OBJECT_ID": "1993-036JY", "EPOCH": "2025-12-08T05:47:20.714208", "MEAN_MOTION": 14.40342418, "ECCENTRICITY": 0.00203499, "INCLINATION": 74.0393, "RA_OF_ASC_NODE": 271.7041, "ARG_OF_PERICENTER": 349.3286, "MEAN_ANOMALY": 160.9893, "EPHEMERIS_TYPE": 0, "CLASSIFICATION_TYPE": "U", "NORAD_CAT_ID": 34061, "ELEMENT_SET_NO": 999, "REV_AT_EPOCH": 88115, "BSTAR": 0.00068943017, "MEAN_MOTION_DOT": 2.166e-05, "MEAN_MOTION_DDOT": 0}, "tle": {"line1": "1 34061U 93036JY  25342.24121197  .00002166  00000+0  68943-3 0  9995", "line2": "2 34061  74.0393 271.7041 0020349 349.3286 160.9893 14.40342418881157"}}, "geometry": {"type": "Point", "coordinates": [75.00427960544637, 43.81188862688012]}}, {"type": "Feature", "properties": {"norad_id": 34062, "name": "COSMOS 2251 DEB", "group": "cosmos-2251-debris", "lat": 50.08682425598647, "lon": 166.0910850347785, "alt_km": 682.0202679496779, "timestamp": "2025-12-08T15:42:50.189681+00:00", "meta": {"OBJECT_NAME": "COSMOS 2251 DEB", "OBJECT_ID": "1993-036JZ", "EPOCH": "2025-12-07T22:10:46.782048", "MEAN_MOTION": 14.78360018, "ECCENTRICITY": 0.00755602, "INCLINATION": 74.0281, "RA_OF_ASC_NODE": 147.5048, "ARG_OF_PERICENTER": 227.4728, "MEAN_ANOMALY": 258.9039, "EPHEMERIS_TYPE": 0, "CLASSIFICATION_TYPE": "U", "NORAD_CAT_ID": 34062, "ELEMENT_SET_NO": 999, "REV_AT_EPOCH": 88524, "BSTAR": 0.0034271661, "MEAN_MOTION_DOT": 0.00026228, "MEAN_MOTION_DDOT": 0}, "tle": {"line1": "1 34062U 93036JZ  25341.92415257  .00026228  00000+0  34272-2 0  9995", "line2": "2 34062  74.0281 147.5048 0075560 227.4728 258.9039 14.78360018885244"}}, "geometry": {"type": "Point", "coordinates": [166.0910850347785, 50.08682425598647]}}, {"type": "Feature", "properties": {"norad_id": 34064, "name": "COSMOS 2251 DEB", "group": "cosmos-2251-debris", "lat": 70.41722846397003, "lon": -27.962589671455238, "alt_km": 744.54877128115, "timestamp": "2025-12-08T15:42:50.189691+00:00", "meta": {"OBJECT_NAME": "COSMOS 2251 DEB", "OBJECT_ID": "1993-036KB", "EPOCH": "2025-12-08T05:57:24.503328", "MEAN_MOTION": 14.42313013, "ECCENTRICITY": 0.00219655, "INCLINATION": 74.0332, "RA_OF_ASC_NODE": 279.2001, "ARG_OF_PERICENTER": 346.1323, "MEAN_ANOMALY": 142.0877, "EPHEMERIS_TYPE": 0, "CLASSIFICATION_TYPE": "U", "NORAD_CAT_ID": 34064, "ELEMENT_SET_NO": 999, "REV_AT_EPOCH": 88077, "BSTAR": 0.00096749272, "MEAN_MOTION_DOT": 3.178e-05, "MEAN_MOTION_DDOT": 0}, "tle": {"line1": "1 34064U 93036KB  25342.24820027  .00003178  00000+0  96749-3 0  9995", "line2": "2 34064  74.0332 279.2001 0021965 346.1323 142.0877 14.42313013880775"}}, "geometry": {"type": "Point", "coordinates": [-27.962589671455238, 70.41722846397003]}}, {"type": "Feature", "properties": {"norad_id": 34065, "name": "COSMOS 2251 DEB", "group": "cosmos-2251-debris", "lat": 24.516340172132917, "lon": 78.1436729503394, "alt_km": 773.9351619070221, "timestamp": "2025-12-08T15:42:50.189701+00:00", "meta": {"OBJECT_NAME": "COSMOS 2251 DEB", "OBJECT_ID": "1993-036KC", "EPOCH": "2025-12-08T05:42:38.536128", "MEAN_MOTION": 14.38055313, "ECCENTRICITY": 0.00161595, "INCLINATION": 74.0358, "RA_OF_ASC_NODE": 266.4126, "ARG_OF_PERICENTER": 4.8567, "MEAN_ANOMALY": 152.4692, "EPHEMERIS_TYPE": 0, "CLASSIFICATION_TYPE": "U", "NORAD_CAT_ID": 34065, "ELEMENT_SET_NO": 999, "REV_AT_EPOCH": 88140, "BSTAR": 0.00034280109, "MEAN_MOTION_DOT": 1.013e-05, "MEAN_MOTION_DDOT": 0}, "tle": {"line1": "1 34065U 93036KC  25342.23794602  .00001013  00000+0  34280-3 0  9992", "line2": "2 34065  74.0358 266.4126 0016159   4.8567 152.4692 14.38055313881409"}}, "geometry": {"type": "Point", "coordinates": [78.1436729503394, 24.516340172132917]}}, {"type": "Feature", "properties": {"norad_id": 34070, "name": "COSMOS 2251 DEB", "group": "cosmos-2251-debris", "lat": -7.0019829200344805, "lon": -53.69008467531953, "alt_km": 634.7678863227684, "timestamp": "2025-12-08T15:42:50.189711+00:00", "meta": {"OBJECT_NAME": "COSMOS 2251 DEB", "OBJECT_ID": "1993-036KH", "EPOCH": "2025-12-08T02:24:32.077728", "MEAN_MOTION": 14.76761409, "ECCENTRICITY": 0.00190061, "INCLINATION": 74.0011, "RA_OF_ASC_NODE": 125.3787, "ARG_OF_PERICENTER": 240.3266, "MEAN_ANOMALY": 240.96, "EPHEMERIS_TYPE": 0, "CLASSIFICATION_TYPE": "U", "NORAD_CAT_ID": 34070, "ELEMENT_SET_NO": 999, "REV_AT_EPOCH": 88542, "BSTAR": 0.0033883554, "MEAN_MOTION_DOT": 0.00023874, "MEAN_MOTION_DDOT": 0}, "tle": {"line1": "1 34070U 93036KH  25342.10037127  .00023874  00000+0  33884-2 0  9993", "line2": "2 34070  74.0011 125.3787 0019006 240.3266 240.9600 14.76761409885424"}}, "geometry": {"type": "Point", "coordinates": [-53.69008467531953, -7.0019829200344805]}}, {"type": "Feature", "properties": {"norad_id": 34114, "name": "COSMOS 2251 DEB", "group": "cosmos-2251-debris", "lat": -21.84290118724544, "lon": 44.9920034371943, "alt_km": 698.7668226033393, "timestamp": "2025-12-08T15:42:50.189722+00:00", "meta": {"OBJECT_NAME": "COSMOS 2251 DEB", "OBJECT_ID": "1993-036KK", "EPOCH": "2025-12-08T07:54:05.737248", "MEAN_MOTION": 14.56283741, "ECCENTRICITY": 0.00473197, "INCLINATION": 74.0585, "RA_OF_ASC_NODE": 52.1873, "ARG_OF_PERICENTER": 48.4141, "MEAN_ANOMALY": 23.5895, "EPHEMERIS_TYPE": 0, "CLASSIFICATION_TYPE": "U", "NORAD_CAT_ID": 34114, "ELEMENT_SET_NO": 999, "REV_AT_EPOCH": 87737, "BSTAR": 0.0020644256, "MEAN_MOTION_DOT": 9.263e-05, "MEAN_MOTION_DDOT": 0}, "tle": {"line1": "1 34114U 93036KK  25342.32923307  .00009263  00000+0  20644-2 0  9996", "line2": "2 34114  74.0585  52.1873 0047319  48.4141  23.5895 14.56283741877371"}}, "geometry": {"type": "Point", "coordinates": [44.9920034371943, -21.84290118724544]}}, {"type": "Feature", "properties": {"norad_id": 34115, "name": "COSMOS 2251 DEB", "group": "cosmos-2251-debris", "lat": 63.4111659799761, "lon": 35.03466689354557, "alt_km": 608.7557239115149, "timestamp": "2025-12-08T15:42:50.189732+00:00", "meta": {"OBJECT_NAME": "COSMOS 2251 DEB", "OBJECT_ID": "1993-036KL", "EPOCH": "2025-12-08T03:51:12.104064", "MEAN_MOTION": 14.79378891, "ECCENTRICITY": 0.00283594, "INCLINATION": 74.0069, "RA_OF_ASC_NODE": 250.9696, "ARG_OF_PERICENTER": 75.8873, "MEAN_ANOMALY": 284.5451, "EPHEMERIS_TYPE": 0, "CLASSIFICATION_TYPE": "U", "NORAD_CAT_ID": 34115, "ELEMENT_SET_NO": 999, "REV_AT_EPOCH": 89344, "BSTAR": 0.0014094336, "MEAN_MOTION_DOT": 0.00010561, "MEAN_MOTION_DDOT": 0}, "tle": {"line1": "1 34115U 93036KL  25342.16055676  .00010561  00000+0  14094-2 0  9999", "line2": "2 34115  74.0069 250.9696 0028359  75.8873 284.5451 14.79378891893448"}}, "geometry": {"type": "Point", "coordinates": [35.03466689354557, 63.4111659799761]}}, {"type": "Feature", "properties": {"norad_id": 34116, "name": "COSMOS 2251 DEB", "group": "cosmos-2251-debris", "lat": 69.0805171153528, "lon": -37.993802190939704, "alt_km": 717.242502456581, "timestamp": "2025-12-08T15:42:50.189742+00:00", "meta": {"OBJECT_NAME": "COSMOS 2251 DEB", "OBJECT_ID": "1993-036KM", "EPOCH": "2025-12-08T01:03:48.225024", "MEAN_MOTION": 14.52935179, "ECCENTRICITY": 0.00121601, "INCLINATION": 74.0398, "RA_OF_ASC_NODE": 191.6326, "ARG_OF_PERICENTER": 267.7407, "MEAN_ANOMALY": 244.3237, "EPHEMERIS_TYPE": 0, "CLASSIFICATION_TYPE": "U", "NORAD_CAT_ID": 34116, "ELEMENT_SET_NO": 999, "REV_AT_EPOCH": 88418, "BSTAR": 0.00091120478, "MEAN_MOTION_DOT": 3.732e-05, "MEAN_MOTION_DDOT": 0}, "tle": {"line1": "1 34116U 93036KM  25342.04430816  .00003732  00000+0  91120-3 0  9998", "line2": "2 34116  74.0398 191.6326 0012160 267.7407 244.3237 14.52935179884189"}}, "geometry": {"type": "Point", "coordinates": [-37.993802190939704, 69.0805171153528]}}]}